IRIDIUM 138             
1 43071U 17083B   26175.15378710  .00000044  00000+0  87389-5 0  9994
2 43071  86.3985 318.7987 0002278  87.1666 272.9790 14.34217651445139
IRIDIUM 116             
1 43072U 17083C   26175.12207357  .00000167  00000+0  52714-4 0  9999
2 43072  86.3970 319.1011 0002099 102.2117 257.9314 14.34217559445163
IRIDIUM 130             
1 43073U 17083D   26175.92758046  .00000001  00000+0 -68665-5 0  9995
2 43073  86.3975 319.0408 0001870  96.4630 263.6778 14.34216425445224
IRIDIUM 151             
1 43074U 17083E   26175.97198126  .00000080  00000+0  21629-4 0  9992
2 43074  86.3971 318.8038 0002186  94.0541 266.0904 14.34217801445253
IRIDIUM 134             
1 43075U 17083F   26176.14957375  .00000084  00000+0  23110-4 0  9993
2 43075  86.3973 318.7377 0002135  93.9744 266.1696 14.34217830445248
IRIDIUM 137             
1 43076U 17083G   26175.88318523  .00000041  00000+0  74978-5 0  9992
2 43076  86.3975 318.9421 0002445 102.4377 257.7092 14.34217820445273
IRIDIUM 141             
1 43077U 17083H   26175.94661086  .00000037  00000+0  59759-5 0  9990
2 43077  86.3969 318.7458 0002204  91.0992 269.0456 14.34217720445284
IRIDIUM 153             
1 43078U 17083J   26175.06156726 -.00000026  00000+0 -16305-4 0  9993
2 43078  86.3963 287.5966 0002091  90.8105 269.3331 14.34217349446264
IRIDIUM 131             
1 43079U 17083K   26175.93392563 -.00000005  00000+0 -88131-5 0  9995
2 43079  86.3972 318.9377 0002131  92.5204 267.6236 14.34217175445210
IRIDIUM 144             
1 43249U 18030A   26175.06790659  .00000198  00000+0  63764-4 0  9994
2 43249  86.3962 287.5228 0002202  98.2229 261.9217 14.34219512431121
IRIDIUM 149             
1 43250U 18030B   26175.07425294 -.00000020  00000+0 -14135-4 0  9991
2 43250  86.3961 287.4872 0002177  94.0558 266.0886 14.34217312431142
IRIDIUM 157             
1 43251U 18030C   26174.39559504  .00000037  00000+0  61275-5 0  9992
2 43251  86.3963 287.8242 0002215  94.8020 265.3429 14.34217928431020
IRIDIUM 140             
1 43252U 18030D   26175.04253758  .00000190  00000+0  60697-4 0  9994
2 43252  86.3962 287.5661 0002126  95.4545 264.6894 14.34216672431171
IRIDIUM 145             
1 43253U 18030E   26175.30892826 -.00000019  00000+0 -13839-4 0  9997
2 43253  86.3961 287.4273 0002040 103.5182 256.6241 14.34217339431147
IRIDIUM 146             
1 43254U 18030F   26175.08059528  .00000046  00000+0  92653-5 0  9997
2 43254  86.3961 287.5347 0002209  97.9228 262.2219 14.34217261431125
IRIDIUM 148             
1 43255U 18030G   26175.04888247  .00000021  00000+0  41872-6 0  9993
2 43255  86.3965 287.5914 0002321  96.1250 264.0210 14.34217794431156
IRIDIUM 142             
1 43256U 18030H   26174.59855815  .00000093  00000+0  26042-4 0  9997
2 43256  86.3960 287.6684 0002241  99.9878 260.1571 14.34217938431051
IRIDIUM 150             
1 43257U 18030J   26175.05522475  .00000054  00000+0  12323-4 0  9997
2 43257  86.3965 287.5938 0002177  95.7669 264.3775 14.34217062431148
IRIDIUM 143             
1 43258U 18030K   26174.54781657  .00000058  00000+0  13662-4 0  9991
2 43258  86.3966 287.8987 0002170  97.4637 262.6805 14.34218165431009
IRIDIUM 161             
1 43478U 18047C   26176.14203823  .00000297  00000+0  82181-4 0  9992
2 43478  86.4481  85.1454 0002505  81.5668 278.5817 14.43282630426285
IRIDIUM 152             
1 43479U 18047D   26176.19497926  .00000261  00000+0  86180-4 0  9991
2 43479  86.3956  84.9844 0002312  82.7227 277.4231 14.34217707423639
IRIDIUM 147             
1 43480U 18047E   26176.13155412 -.00000024  00000+0 -15743-4 0  9994
2 43480  86.3955  85.0161 0002030  86.9535 273.1893 14.34217314423629
IRIDIUM 110             
1 43481U 18047F   26176.13789686 -.00000023  00000+0 -15161-4 0  9994
2 43481  86.3957  85.1056 0002355  78.8718 281.2742 14.34217370423613
IRIDIUM 162             
1 43482U 18047G   26176.13573714  .00000302  00000+0  83760-4 0  9996
2 43482  86.4485  85.0390 0002156  84.5955 275.5492 14.43278324426276
IRIDIUM 160             
1 43569U 18061A   26176.15350119  .00000030  00000+0  34950-5 0  9998
2 43569  86.3958  53.4663 0002268  85.8358 274.3097 14.34217717414514
IRIDIUM 166             
1 43570U 18061B   26176.17887068  .00000002  00000+0 -62078-5 0  9992
2 43570  86.3950  53.4059 0002012  87.5959 272.5467 14.34217600414545
IRIDIUM 158             
1 43571U 18061C   26176.14715803  .00000104  00000+0  29991-4 0  9995
2 43571  86.3951  53.4292 0002239  84.1097 276.0354 14.34217452414508
IRIDIUM 165             
1 43572U 18061D   26176.17252795  .00000157  00000+0  48877-4 0  9997
2 43572  86.3957  53.4653 0002155  89.0996 271.0447 14.34217463414538
IRIDIUM 155             
1 43573U 18061E   26176.13447301  .00000031  00000+0  40994-5 0  9997
2 43573  86.3947  53.3495 0001955  83.7796 276.3622 14.34217629414499
IRIDIUM 154             
1 43574U 18061F   26176.18521358  .00000096  00000+0  27298-4 0  9990
2 43574  86.3957  53.4626 0002169  89.0984 271.0461 14.34217875414557
