OBJECT_NAME,OBJECT_ID,EPOCH,MEAN_MOTION,ECCENTRICITY,INCLINATION,RA_OF_ASC_NODE,ARG_OF_PERICENTER,MEAN_ANOMALY,EPHEMERIS_TYPE,CLASSIFICATION_TYPE,NORAD_CAT_ID,ELEMENT_SET_NO,REV_AT_EPOCH,BSTAR,MEAN_MOTION_DOT,MEAN_MOTION_DDOT
IRIDIUM 138,2017-083B,2026-06-24T03:41:27.205440,14.34217651,.00022781,86.3985,318.7987,87.1666,272.9790,0,U,43071,999,44513,.8738852E-5,.44E-6,0
IRIDIUM 116,2017-083C,2026-06-24T02:55:47.156448,14.34217559,.00020993,86.3970,319.1011,102.2117,257.9314,0,U,43072,999,44516,.52713539E-4,.167E-5,0
IRIDIUM 130,2017-083D,2026-06-24T22:15:42.951744,14.34216425,.000187,86.3975,319.0408,96.4630,263.6778,0,U,43073,999,44522,-.68665E-5,.1E-7,0
IRIDIUM 151,2017-083E,2026-06-24T23:19:39.180864,14.34217801,.0002186,86.3971,318.8038,94.0541,266.0904,0,U,43074,999,44525,.21629E-4,.8E-6,0
IRIDIUM 134,2017-083F,2026-06-25T03:35:23.172000,14.34217830,.0002135,86.3973,318.7377,93.9744,266.1696,0,U,43075,999,44524,.2311E-4,.84E-6,0
IRIDIUM 137,2017-083G,2026-06-24T21:11:47.203872,14.34217820,.0002445,86.3975,318.9421,102.4377,257.7092,0,U,43076,999,44527,.74978E-5,.41E-6,0
IRIDIUM 141,2017-083H,2026-06-24T22:43:07.178304,14.34217720,.0002204,86.3969,318.7458,91.0992,269.0456,0,U,43077,999,44528,.59759E-5,.37E-6,0
IRIDIUM 153,2017-083J,2026-06-24T01:28:39.411264,14.34217349,.00020913,86.3963,287.5966,90.8105,269.3331,0,U,43078,999,44626,-.16304777E-4,-.26E-6,0
IRIDIUM 131,2017-083K,2026-06-24T22:24:51.174432,14.34217175,.0002131,86.3972,318.9377,92.5204,267.6236,0,U,43079,999,44521,-.88131E-5,-.5E-7,0
IRIDIUM 144,2018-030A,2026-06-24T01:37:47.129376,14.34219512,.00022021,86.3962,287.5228,98.2229,261.9217,0,U,43249,999,43112,.63764233E-4,.198E-5,0
IRIDIUM 149,2018-030B,2026-06-24T01:46:55.454016,14.34217312,.00021774,86.3961,287.4872,94.0558,266.0886,0,U,43250,999,43114,-.14135356E-4,-.2E-6,0
IRIDIUM 157,2018-030C,2026-06-23T09:29:39.411456,14.34217928,.00022152,86.3963,287.8242,94.8020,265.3429,0,U,43251,999,43102,.6127523E-5,.37E-6,0
IRIDIUM 140,2018-030D,2026-06-24T01:01:15.246912,14.34216672,.00021268,86.3962,287.5661,95.4545,264.6894,0,U,43252,999,43117,.60697278E-4,.19E-5,0
IRIDIUM 145,2018-030E,2026-06-24T07:24:51.401664,14.34217339,.00020401,86.3961,287.4273,103.5182,256.6241,0,U,43253,999,43114,-.13839097E-4,-.19E-6,0
IRIDIUM 146,2018-030F,2026-06-24T01:56:03.432192,14.34217261,.00022098,86.3961,287.5347,97.9228,262.2219,0,U,43254,999,43112,.9265306E-5,.46E-6,0
IRIDIUM 148,2018-030G,2026-06-24T01:10:23.445408,14.34217794,.00023218,86.3965,287.5914,96.1250,264.0210,0,U,43255,999,43115,.418715E-6,.21E-6,0
IRIDIUM 142,2018-030H,2026-06-23T14:21:55.424160,14.34217938,.00022419,86.3960,287.6684,99.9878,260.1571,0,U,43256,999,43105,.26041597E-4,.93E-6,0
IRIDIUM 150,2018-030J,2026-06-24T01:19:31.418400,14.34217062,.00021773,86.3965,287.5938,95.7669,264.3775,0,U,43257,999,43114,.12322573E-4,.54E-6,0
IRIDIUM 143,2018-030K,2026-06-23T13:08:51.351648,14.34218165,.00021705,86.3966,287.8987,97.4637,262.6805,0,U,43258,999,43100,.13661592E-4,.58E-6,0
IRIDIUM 161,2018-047C,2026-06-25T03:24:32.103072,14.43282630,.0002505,86.4481,85.1454,81.5668,278.5817,0,U,43478,999,42628,.82181E-4,.297E-5,0
IRIDIUM 152,2018-047D,2026-06-25T04:40:46.208064,14.34217707,.0002312,86.3956,84.9844,82.7227,277.4231,0,U,43479,999,42363,.8618E-4,.261E-5,0
IRIDIUM 147,2018-047E,2026-06-25T03:09:26.275968,14.34217314,.000203,86.3955,85.0161,86.9535,273.1893,0,U,43480,999,42362,-.15743E-4,-.24E-6,0
IRIDIUM 110,2018-047F,2026-06-25T03:18:34.288704,14.34217370,.0002355,86.3957,85.1056,78.8718,281.2742,0,U,43481,999,42361,-.15161E-4,-.23E-6,0
IRIDIUM 162,2018-047G,2026-06-25T03:15:27.688896,14.43278324,.0002156,86.4485,85.0390,84.5955,275.5492,0,U,43482,999,42627,.8376E-4,.302E-5,0
IRIDIUM 160,2018-061A,2026-06-25T03:41:02.502816,14.34217717,.0002268,86.3958,53.4663,85.8358,274.3097,0,U,43569,999,41451,.3495E-5,.3E-6,0
IRIDIUM 166,2018-061B,2026-06-25T04:17:34.426752,14.34217600,.0002012,86.3950,53.4059,87.5959,272.5467,0,U,43570,999,41454,-.62078E-5,.2E-7,0
IRIDIUM 158,2018-061C,2026-06-25T03:31:54.453792,14.34217452,.0002239,86.3951,53.4292,84.1097,276.0354,0,U,43571,999,41450,.29991E-4,.104E-5,0
IRIDIUM 165,2018-061D,2026-06-25T04:08:26.414880,14.34217463,.0002155,86.3957,53.4653,89.0996,271.0447,0,U,43572,999,41453,.48877E-4,.157E-5,0
IRIDIUM 155,2018-061E,2026-06-25T03:13:38.468064,14.34217629,.0001955,86.3947,53.3495,83.7796,276.3622,0,U,43573,999,41449,.40994E-5,.31E-6,0
IRIDIUM 154,2018-061F,2026-06-25T04:26:42.453312,14.34217875,.0002169,86.3957,53.4626,89.0984,271.0461,0,U,43574,999,41455,.27298E-4,.96E-6,0
